{"type": "FeatureCollection", "features": [ {"type": "Feature", "properties": {"norad_id": 34529, "name": "IRIDIUM 33 DEB", "group": "iridium-33-debris", "lat": -86.31546874290338, "lon": -63.90311777068382, "alt_km": 764.1821635151355, "timestamp": "2025-12-13T05:42:57.956213+00:00", "meta": {"OBJECT_NAME": "IRIDIUM 33 DEB", "OBJECT_ID": "1997-051HW", "EPOCH": "2025-12-11T20:47:45.904128", "MEAN_MOTION": 14.40614839, "ECCENTRICITY": 0.00047, "INCLINATION": 86.3641, "RA_OF_ASC_NODE": 35.7841, "ARG_OF_PERICENTER": 179.4725, "MEAN_ANOMALY": 180.648, "EPHEMERIS_TYPE": 0, "CLASSIFICATION_TYPE": "U", "NORAD_CAT_ID": 34529, "ELEMENT_SET_NO": 999, "REV_AT_EPOCH": 88129, "BSTAR": 0.00017623, "MEAN_MOTION_DOT": 5.82e-06, "MEAN_MOTION_DDOT": 0}, "tle": {"line1": "1 34529U 97051HW  25345.86650352  .00000582  00000+0  17623-3 0  9995", "line2": "2 34529  86.3641  35.7841 0004700 179.4725 180.6480 14.40614839881292"}}, "geometry": {"type": "Point", "coordinates": [-63.90311777068382, -86.31546874290338]}}, {"type": "Feature", "properties": {"norad_id": 34538, "name": "IRIDIUM 33 DEB", "group": "iridium-33-debris", "lat": 69.31620780284216, "lon": 175.40799342791266, "alt_km": 762.0165766895389, "timestamp": "2025-12-13T05:42:57.956224+00:00", "meta": {"OBJECT_NAME": "IRIDIUM 33 DEB", "OBJECT_ID": "1997-051JF", "EPOCH": "2025-12-11T12:17:49.059168", "MEAN_MOTION": 14.42637449, "ECCENTRICITY": 0.00329249, "INCLINATION": 86.2774, "RA_OF_ASC_NODE": 6.0934, "ARG_OF_PERICENTER": 332.21, "MEAN_ANOMALY": 180.6153, "EPHEMERIS_TYPE": 0, "CLASSIFICATION_TYPE": "U", "NORAD_CAT_ID": 34538, "ELEMENT_SET_NO": 999, "REV_AT_EPOCH": 87738, "BSTAR": 0.0015467501, "MEAN_MOTION_DOT": 5.192e-05, "MEAN_MOTION_DDOT": 0}, "tle": {"line1": "1 34538U 97051JF  25345.51237337  .00005192  00000+0  15468-2 0  9997", "line2": "2 34538  86.2774   6.0934 0032924 332.2100 180.6153 14.42637449877383"}}, "geometry": {"type": "Point", "coordinates": [175.40799342791266, 69.31620780284216]}}, {"type": "Feature", "properties": {"norad_id": 34540, "name": "IRIDIUM 33 DEB", "group": "iridium-33-debris", "lat": -46.897003262036826, "lon": 131.3328457262936, "alt_km": 646.9458266331203, "timestamp": "2025-12-13T05:42:57.956235+00:00", "meta": {"OBJECT_NAME": "IRIDIUM 33 DEB", "OBJECT_ID": "1997-051JH", "EPOCH": "2025-12-12T04:20:12.306336", "MEAN_MOTION": 14.75303898, "ECCENTRICITY": 0.00163235, "INCLINATION": 86.3104, "RA_OF_ASC_NODE": 307.8626, "ARG_OF_PERICENTER": 161.1064, "MEAN_ANOMALY": 212.9311, "EPHEMERIS_TYPE": 0, "CLASSIFICATION_TYPE": "U", "NORAD_CAT_ID": 34540, "ELEMENT_SET_NO": 999, "REV_AT_EPOCH": 89013, "BSTAR": 0.0024579152, "MEAN_MOTION_DOT": 0.00016729, "MEAN_MOTION_DDOT": 0}, "tle": {"line1": "1 34540U 97051JH  25346.18069799  .00016729  00000+0  24579-2 0  9990", "line2": "2 34540  86.3104 307.8626 0016323 161.1064 212.9311 14.75303898890134"}}, "geometry": {"type": "Point", "coordinates": [131.3328457262936, -46.897003262036826]}}, {"type": "Feature", "properties": {"norad_id": 34648, "name": "IRIDIUM 33 DEB", "group": "iridium-33-debris", "lat": -77.3771657016488, "lon": 118.11699131151497, "alt_km": 758.4574934962657, "timestamp": "2025-12-13T05:42:57.956246+00:00", "meta": {"OBJECT_NAME": "IRIDIUM 33 DEB", "OBJECT_ID": "1997-051JZ", "EPOCH": "2025-12-11T13:21:05.102784", "MEAN_MOTION": 14.11443671, "ECCENTRICITY": 0.01830215, "INCLINATION": 86.3904, "RA_OF_ASC_NODE": 282.4242, "ARG_OF_PERICENTER": 302.6046, "MEAN_ANOMALY": 55.7583, "EPHEMERIS_TYPE": 0, "CLASSIFICATION_TYPE": "U", "NORAD_CAT_ID": 34648, "ELEMENT_SET_NO": 999, "REV_AT_EPOCH": 84944, "BSTAR": 0.011270699, "MEAN_MOTION_DOT": 0.00023967, "MEAN_MOTION_DDOT": 0}, "tle": {"line1": "1 34648U 97051JZ  25345.55630906  .00023967  00000+0  11271-1 0  9999", "line2": "2 34648  86.3904 282.4242 0183021 302.6046  55.7583 14.11443671849441"}}, "geometry": {"type": "Point", "coordinates": [118.11699131151497, -77.3771657016488]}}, {"type": "Feature", "properties": {"norad_id": 34651, "name": "IRIDIUM 33 DEB", "group": "iridium-33-debris", "lat": -16.45034562314293, "lon": 139.2656643419091, "alt_km": 889.6526268286743, "timestamp": "2025-12-13T05:42:57.956256+00:00", "meta": {"OBJECT_NAME": "IRIDIUM 33 DEB", "OBJECT_ID": "1997-051KC", "EPOCH": "2025-12-11T10:00:09.377280", "MEAN_MOTION": 14.25785902, "ECCENTRICITY": 0.01420766, "INCLINATION": 86.2836, "RA_OF_ASC_NODE": 141.1401, "ARG_OF_PERICENTER": 208.1446, "MEAN_ANOMALY": 151.2016, "EPHEMERIS_TYPE": 0, "CLASSIFICATION_TYPE": "U", "NORAD_CAT_ID": 34651, "ELEMENT_SET_NO": 999, "REV_AT_EPOCH": 85877, "BSTAR": 0.0064804536, "MEAN_MOTION_DOT": 0.00017162, "MEAN_MOTION_DDOT": 0}, "tle": {"line1": "1 34651U 97051KC  25345.41677520  .00017162  00000+0  64805-2 0  9993", "line2": "2 34651  86.2836 141.1401 0142076 208.1446 151.2016 14.25785902858775"}}, "geometry": {"type": "Point", "coordinates": [139.2656643419091, -16.45034562314293]}}, {"type": "Feature", "properties": {"norad_id": 34652, "name": "IRIDIUM 33 DEB", "group": "iridium-33-debris", "lat": 80.57893776837514, "lon": 137.03361593398057, "alt_km": 696.6201513275755, "timestamp": "2025-12-13T05:42:57.956267+00:00", "meta": {"OBJECT_NAME": "IRIDIUM 33 DEB", "OBJECT_ID": "1997-051KD", "EPOCH": "2025-12-11T23:57:08.973792", "MEAN_MOTION": 14.62047586, "ECCENTRICITY": 0.0025954, "INCLINATION": 86.3316, "RA_OF_ASC_NODE": 340.3318, "ARG_OF_PERICENTER": 300.945, "MEAN_ANOMALY": 114.4446, "EPHEMERIS_TYPE": 0, "CLASSIFICATION_TYPE": "U", "NORAD_CAT_ID": 34652, "ELEMENT_SET_NO": 999, "REV_AT_EPOCH": 88473, "BSTAR": 0.0015132, "MEAN_MOTION_DOT": 7.652e-05, "MEAN_MOTION_DDOT": 0}, "tle": {"line1": "1 34652U 97051KD  25345.99802053  .00007652  00000+0  15132-2 0  9990", "line2": "2 34652  86.3316 340.3318 0025954 300.9450 114.4446 14.62047586884734"}}, "geometry": {"type": "Point", "coordinates": [137.03361593398057, 80.57893776837514]}}, {"type": "Feature", "properties": {"norad_id": 34690, "name": "IRIDIUM 33 DEB", "group": "iridium-33-debris", "lat": -51.11519988525323, "lon": 32.2699684987477, "alt_km": 714.5035848802745, "timestamp": "2025-12-13T05:42:57.956278+00:00", "meta": {"OBJECT_NAME": "IRIDIUM 33 DEB", "OBJECT_ID": "1997-051KM", "EPOCH": "2025-12-11T02:55:05.414016", "MEAN_MOTION": 14.5508579, "ECCENTRICITY": 0.00110418, "INCLINATION": 86.378, "RA_OF_ASC_NODE": 37.6945, "ARG_OF_PERICENTER": 34.4543, "MEAN_ANOMALY": 354.2887, "EPHEMERIS_TYPE": 0, "CLASSIFICATION_TYPE": "U", "NORAD_CAT_ID": 34690, "ELEMENT_SET_NO": 999, "REV_AT_EPOCH": 88071, "BSTAR": 0.00065168739, "MEAN_MOTION_DOT": 2.833e-05, "MEAN_MOTION_DDOT": 0}, "tle": {"line1": "1 34690U 97051KM  25345.12159044  .00002833  00000+0  65169-3 0  9994", "line2": "2 34690  86.3780  37.6945 0011041  34.4543 354.2887 14.55085790880715"}}, "geometry": {"type": "Point", "coordinates": [32.2699684987477, -51.11519988525323]}}, {"type": "Feature", "properties": {"norad_id": 34693, "name": "IRIDIUM 33 DEB", "group": "iridium-33-debris", "lat": 52.086005557762746, "lon": 118.81796354125427, "alt_km": 474.93143208729543, "timestamp": "2025-12-13T05:42:57.956289+00:00", "meta": {"OBJECT_NAME": "IRIDIUM 33 DEB", "OBJECT_ID": "1997-051KQ", "EPOCH": "2025-12-12T04:16:22.304352", "MEAN_MOTION": 15.27707686, "ECCENTRICITY": 0.00140311, "INCLINATION": 86.3049, "RA_OF_ASC_NODE": 304.1041, "ARG_OF_PERICENTER": 54.1039, "MEAN_ANOMALY": 6.3435, "EPHEMERIS_TYPE": 0, "CLASSIFICATION_TYPE": "U", "NORAD_CAT_ID": 34693, "ELEMENT_SET_NO": 999, "REV_AT_EPOCH": 88906, "BSTAR": 0.0056019513, "MEAN_MOTION_DOT": 0.00154909, "MEAN_MOTION_DDOT": 0}, "tle": {"line1": "1 34693U 97051KQ  25346.17803593  .00154909  00000+0  56020-2 0  9995", "line2": "2 34693  86.3049 304.1041 0014031  54.1039   6.3435 15.27707686889062"}}, "geometry": {"type": "Point", "coordinates": [118.81796354125427, 52.086005557762746]}}, {"type": "Feature", "properties": {"norad_id": 34696, "name": "IRIDIUM 33 DEB", "group": "iridium-33-debris", "lat": 74.99068342846205, "lon": -167.11995277786826, "alt_km": 644.1912560432729, "timestamp": "2025-12-13T05:42:57.956300+00:00", "meta": {"OBJECT_NAME": "IRIDIUM 33 DEB", "OBJECT_ID": "1997-051KT", "EPOCH": "2025-12-11T02:33:26.982720", "MEAN_MOTION": 14.64953116, "ECCENTRICITY": 0.00741481, "INCLINATION": 86.185, "RA_OF_ASC_NODE": 28.2818, "ARG_OF_PERICENTER": 173.0229, "MEAN_ANOMALY": 217.0787, "EPHEMERIS_TYPE": 0, "CLASSIFICATION_TYPE": "U", "NORAD_CAT_ID": 34696, "ELEMENT_SET_NO": 999, "REV_AT_EPOCH": 86649, "BSTAR": 0.0075396538, "MEAN_MOTION_DOT": 0.00042238, "MEAN_MOTION_DDOT": 0}, "tle": {"line1": "1 34696U 97051KT  25345.10656230  .00042238  00000+0  75397-2 0  9993", "line2": "2 34696  86.1850  28.2818 0074148 173.0229 217.0787 14.64953116866490"}}, "geometry": {"type": "Point", "coordinates": [-167.11995277786826, 74.99068342846205]}}, {"type": "Feature", "properties": {"norad_id": 34765, "name": "IRIDIUM 33 DEB", "group": "iridium-33-debris", "lat": -48.32697355937921, "lon": 28.423998517083252, "alt_km": 766.0711864867726, "timestamp": "2025-12-13T05:42:57.956311+00:00", "meta": {"OBJECT_NAME": "IRIDIUM 33 DEB", "OBJECT_ID": "1997-051LJ", "EPOCH": "2025-12-11T14:38:05.129376", "MEAN_MOTION": 14.40460694, "ECCENTRICITY": 0.00153204, "INCLINATION": 86.3396, "RA_OF_ASC_NODE": 33.2465, "ARG_OF_PERICENTER": 215.3687, "MEAN_ANOMALY": 297.1612, "EPHEMERIS_TYPE": 0, "CLASSIFICATION_TYPE": "U", "NORAD_CAT_ID": 34765, "ELEMENT_SET_NO": 999, "REV_AT_EPOCH": 87597, "BSTAR": 0.00062745119, "MEAN_MOTION_DOT": 2.016e-05, "MEAN_MOTION_DDOT": 0}, "tle": {"line1": "1 34765U 97051LJ  25345.60978159  .00002016  00000+0  62745-3 0  9996", "line2": "2 34765  86.3396  33.2465 0015320 215.3687 297.1612 14.40460694875970"}}, "geometry": {"type": "Point", "coordinates": [28.423998517083252, -48.32697355937921]}}]}